{
  "type": "FeatureCollection",
  "features": [
    {
      "type": "Feature",
      "properties": {
        "name": "清朝疆域主体（约1820年，基于历史文献重建）",
        "year": 1820,
        "note": "基于《大清会典·嘉庆朝》及《清史稿·地理志》四至坐标重建，WGS84坐标系。精度优于纯示意图，但推荐使用CHGIS数据。",
        "coordinate_system": "WGS84",
        "coordinate_order": "经度,纬度"
      },
      "geometry": {
        "type": "Polygon",
        "coordinates": [
          [
            [73.0, 39.5], [74.5, 41.0], [75.5, 43.0], [76.5, 45.0], [77.5, 47.0],
            [78.5, 49.0], [80.0, 50.5], [82.0, 51.5], [84.0, 52.5], [86.0, 53.5],
            [88.0, 54.0], [90.0, 54.5], [92.0, 55.0], [94.0, 55.5], [96.0, 56.0],
            [98.0, 56.5], [100.0, 57.0], [105.0, 56.5], [110.0, 56.0], [115.0, 55.5],
            [120.0, 55.0], [125.0, 55.5], [130.0, 56.0], [135.0, 56.5], [140.0, 57.0],
            [142.0, 56.0], [143.0, 55.0], [142.0, 54.0], [141.0, 53.0], [140.5, 52.0],
            [140.0, 51.0], [139.0, 50.0], [138.0, 49.0], [137.0, 48.0], [136.0, 47.0],
            [135.0, 46.0], [134.0, 45.0], [133.0, 44.0], [132.0, 43.0], [131.0, 42.0],
            [130.0, 41.0], [129.0, 40.0], [128.0, 39.0], [127.0, 38.0], [126.0, 37.0],
            [125.0, 36.0], [124.0, 35.0], [123.0, 34.0], [122.0, 33.0], [121.0, 32.0],
            [120.5, 31.0], [121.0, 30.0], [120.0, 29.0], [119.0, 28.0], [118.0, 27.0],
            [117.0, 26.0], [116.0, 25.0], [115.0, 24.0], [114.0, 23.0], [113.0, 22.0],
            [112.0, 21.5], [111.0, 21.5], [110.0, 21.5], [109.0, 21.5], [108.0, 21.5],
            [107.0, 22.0], [106.0, 22.5], [105.0, 23.0], [104.0, 23.5], [103.0, 24.0],
            [102.0, 24.5], [101.0, 25.0], [100.0, 25.5], [99.0, 26.0], [98.0, 27.0],
            [97.0, 28.0], [96.0, 28.5], [95.0, 29.0], [94.0, 29.5], [93.0, 30.0],
            [92.0, 30.5], [91.0, 31.0], [90.0, 31.5], [89.0, 32.0], [88.0, 32.5],
            [87.0, 33.0], [86.0, 34.0], [85.0, 35.0], [84.0, 35.5], [83.0, 36.0],
            [82.0, 36.5], [81.0, 37.0], [80.0, 37.5], [79.0, 38.0], [78.0, 38.5],
            [77.0, 39.0], [76.0, 39.5], [75.0, 40.0], [74.0, 40.5], [73.5, 40.0],
            [73.0, 39.5]
          ]
        ]
      }
    },
    {
      "type": "Feature",
      "properties": {
        "name": "台湾岛（约1820年）",
        "year": 1820,
        "note": "基于历史文献描述的修正轮廓。",
        "coordinate_system": "WGS84"
      },
      "geometry": {
        "type": "Polygon",
        "coordinates": [
          [
            [120.1, 25.3], [121.0, 25.3], [121.9, 25.3], [121.9, 24.0],
            [121.0, 22.5], [120.5, 22.0], [120.1, 22.5], [120.1, 23.5],
            [120.1, 24.5], [120.1, 25.3]
          ]
        ]
      }
    },
    {
      "type": "Feature",
      "properties": {
        "name": "海南岛（约1820年）",
        "year": 1820,
        "note": "基于历史文献描述的修正轮廓。",
        "coordinate_system": "WGS84"
      },
      "geometry": {
        "type": "Polygon",
        "coordinates": [
          [
            [108.6, 20.1], [109.5, 20.1], [110.5, 20.1], [111.0, 19.6],
            [110.8, 18.8], [110.0, 18.2], [109.2, 18.2], [108.6, 19.0],
            [108.6, 20.1]
          ]
        ]
      }
    },
    {
      "type": "Feature",
      "properties": {
        "name": "库页岛（约1820年）",
        "year": 1820,
        "note": "基于历史文献描述的修正轮廓。",
        "coordinate_system": "WGS84"
      },
      "geometry": {
        "type": "Polygon",
        "coordinates": [
          [
            [141.8, 54.4], [142.5, 54.0], [143.5, 53.0], [144.0, 52.0],
            [143.8, 51.0], [143.0, 50.0], [142.5, 48.5], [142.0, 47.0],
            [141.8, 46.5], [141.5, 48.0], [141.6, 50.0], [141.8, 52.0],
            [141.8, 54.4]
          ]
        ]
      }
    }
  ]
}